[{"OBJECT_NAME":"FENGYUN 4C","OBJECT_ID":"2025-312A","EPOCH":"2026-03-06T19:43:31.309824","MEAN_MOTION":1.00272167,"ECCENTRICITY":8.02e-5,"INCLINATION":0.0308,"RA_OF_ASC_NODE":297.2637,"ARG_OF_PERICENTER":81.3964,"MEAN_ANOMALY":214.7522,"EPHEMERIS_TYPE":0,"CLASSIFICATION_TYPE":"U","NORAD_CAT_ID":67246,"ELEMENT_SET_NO":999,"REV_AT_EPOCH":75,"BSTAR":0,"MEAN_MOTION_DOT":-3.26e-6,"MEAN_MOTION_DDOT":0},{"OBJECT_NAME":"SHIJIAN-29A (SJ-29A)","OBJECT_ID":"2025-315A","EPOCH":"2026-03-06T16:01:39.050112","MEAN_MOTION":1.00273307,"ECCENTRICITY":0.0002382,"INCLINATION":3.1374,"RA_OF_ASC_NODE":97.756,"ARG_OF_PERICENTER":308.5456,"MEAN_ANOMALY":71.5771,"EPHEMERIS_TYPE":0,"CLASSIFICATION_TYPE":"U","NORAD_CAT_ID":67302,"ELEMENT_SET_NO":999,"REV_AT_EPOCH":59,"BSTAR":0,"MEAN_MOTION_DOT":-7.0e-7,"MEAN_MOTION_DDOT":0},{"OBJECT_NAME":"SHIJIAN-29B (SJ-29B)","OBJECT_ID":"2025-315C","EPOCH":"2026-03-06T16:01:39.031104","MEAN_MOTION":1.0027303,"ECCENTRICITY":0.0004088,"INCLINATION":3.1373,"RA_OF_ASC_NODE":97.7392,"ARG_OF_PERICENTER":318.539,"MEAN_ANOMALY":61.682,"EPHEMERIS_TYPE":0,"CLASSIFICATION_TYPE":"U","NORAD_CAT_ID":67403,"ELEMENT_SET_NO":999,"REV_AT_EPOCH":66,"BSTAR":0,"MEAN_MOTION_DOT":-7.0e-7,"MEAN_MOTION_DDOT":0},{"OBJECT_NAME":"JAM-E JAM 1","OBJECT_ID":"2026-028B","EPOCH":"2026-03-06T14:07:26.036256","MEAN_MOTION":1.0026097,"ECCENTRICITY":0.00045148,"INCLINATION":0.5003,"RA_OF_ASC_NODE":285.7022,"ARG_OF_PERICENTER":129.9316,"MEAN_ANOMALY":355.2368,"EPHEMERIS_TYPE":0,"CLASSIFICATION_TYPE":"U","NORAD_CAT_ID":67757,"ELEMENT_SET_NO":999,"REV_AT_EPOCH":9,"BSTAR":0,"MEAN_MOTION_DOT":1.51e-6,"MEAN_MOTION_DDOT":0}]
