FENGYUN 4C              
1 67246U 25312A   26065.82189016 -.00000326  00000+0  00000+0 0  9992
2 67246   0.0308 297.2637 0000802  81.3964 214.7522  1.00272167   756
SHIJIAN-29A (SJ-29A)    
1 67302U 25315A   26065.66781308 -.00000070  00000+0  00000+0 0  9998
2 67302   3.1374  97.7560 0002382 308.5456  71.5771  1.00273307   593
SHIJIAN-29B (SJ-29B)    
1 67403U 25315C   26065.66781286 -.00000070  00000+0  00000+0 0  9995
2 67403   3.1373  97.7392 0004088 318.5390  61.6820  1.00273030   666
JAM-E JAM 1             
1 67757U 26028B   26065.58849579  .00000151  00000+0  00000+0 0  9999
2 67757   0.5003 285.7022 0004514 129.9316 355.2368  1.00260970    99
